ONEWEB-0588             
1 55153U 23004P   24271.53280020  .00000079  00000+0  16797-3 0  9992
2 55153  87.9055 100.4384 0001955  71.9404 288.1941 13.18684577 86973
ONEWEB-0598             
1 55154U 23004Q   24271.61932061 -.00000330  00000+0 -96573-3 0  9993
2 55154  87.8950 146.0906 0002380  78.5970 281.5425 13.11418266 83645
ONEWEB-0599             
1 55155U 23004R   24271.86810897 -.00001346  00000+0 -35023-2 0  9993
2 55155  87.9123 130.8220 0001929  85.8041 274.3311 13.17635109 84870
ONEWEB-0614             
1 55156U 23004S   24271.61423117 -.00000480  00000+0 -13900-2 0  9990
2 55156  87.8947 146.0971 0001448  63.2587 296.8689 13.11417355 83586
ONEWEB-0616             
1 55157U 23004T   24271.37871318  .00000538  00000+0  13524-2 0  9998
2 55157  87.9117 130.9223 0001965 117.6185 242.5146 13.17626615 85025
ONEWEB-0617             
1 55158U 23004U   24271.37347079 -.00000394  00000+0 -11480-2 0  9992
2 55158  87.8945 146.1360 0001762  62.8071 297.3237 13.11415910 83570
ONEWEB-0618             
1 55159U 23004V   24271.42274751  .00000488  00000+0  19274-3 0  9997
2 55159  86.9050  57.0387 0011614 321.1352  38.9005 14.27108557 89928
ONEWEB-0619             
1 55160U 23004W   24271.86641430 -.00000700  00000+0 -18362-2 0  9994
2 55160  87.9108 130.8025 0001211  82.7794 277.3475 13.17653132 84989
